NORAD_CAT_ID,OBJECT_NAME,OBJECT_TYPE,EPOCH,MEAN_MOTION,ECCENTRICITY,INCLINATION,RA_OF_ASC_NODE,ARG_OF_PERICENTER,MEAN_ANOMALY,BSTAR,MEAN_MOTION_DOT,MEAN_MOTION_DDOT,TLE_LINE0,TLE_LINE1,TLE_LINE2,SEMIMAJOR_AXIS,PERIOD,APOGEE,PERIGEE,DECAYED
51997.0,STARLINK-3589,PAYLOAD,2022-05-05 22:00:00,15.73213941,0.0002315,53.2126,215.9003,18.4456,62.8755,-0.00067101,-0.0009382,0.0,0 STARLINK-3589,1 51997U 22025AT  22125.91667824 -.00093820  00000-0 -67101-3 0  9999,2 51997  53.2126 215.9003 0002315  18.4456  62.8755 15.73213941  3665,6727.855,91.532,351.278,348.163,0.0
51997.0,STARLINK-3589,PAYLOAD,2022-05-06 12:00:00,15.7322332,0.0002424,53.2124,213.0144,20.0499,126.9272,-0.00035242,-0.00049846,0.0,0 STARLINK-3589,1 51997U 22025AT  22126.50001157 -.00049846  00000-0 -35242-3 0  9996,2 51997  53.2124 213.0144 0002424  20.0499 126.9272 15.73223320 10380,6727.829000000002,91.532,351.325,348.06300000000016,0.0
51997.0,STARLINK-3589,PAYLOAD,2022-05-06 14:00:01,15.73181397,0.00025,53.2126,212.6025,20.3045,238.9196,0.00023223,0.00032073,0.0,0 STARLINK-3589,1 51997U 22025AT  22126.58334491  .00032073  00000-0  23223-3 0  9992,2 51997  53.2126 212.6025 0002500  20.3045 238.9196 15.73181397  3715,6727.948,91.534,351.495,348.131,0.0
51997.0,STARLINK-3589,PAYLOAD,2022-05-06 20:00:01,15.73244824,0.0002471,53.2122,211.3645,18.8995,217.0058,-0.00035068,-0.0004965,0.0,0 STARLINK-3589,1 51997U 22025AT  22126.83334491 -.00049650  00000-0 -35068-3 0  9991,2 51997  53.2122 211.3645 0002471  18.8995 217.0058 15.73244824 10446,6727.767,91.531,351.295,347.97,0.0
51997.0,STARLINK-3589,PAYLOAD,2022-05-07 12:00:00,15.73221173,0.0002611,53.2128,208.0655,21.1586,32.6378,-0.00044517,-0.00062703,0.0,0 STARLINK-3589,1 51997U 22025AT  22127.50001157 -.00062703  00000-0 -44517-3 0  9999,2 51997  53.2128 208.0655 0002611  21.1586  32.6378 15.73221173 10544,6727.835,91.532,351.456,347.9430000000001,0.0
51997.0,STARLINK-3589,PAYLOAD,2022-05-07 14:00:01,15.73170706,0.0002693,53.2132,207.6532,20.2389,145.8055,0.00024692,0.00034134,0.0,0 STARLINK-3589,1 51997U 22025AT  22127.58334491  .00034134  00000-0  24692-3 0  9994,2 51997  53.2132 207.6532 0002693  20.2389 145.8055 15.73170706  3769,6727.979,91.535,351.656,348.032,0.0
51997.0,STARLINK-3589,PAYLOAD,2022-05-07 22:00:00,15.73229422,0.0002517,53.2126,206.0025,17.4298,237.4906,-0.00054728,-0.00076841,0.0,0 STARLINK-3589,1 51997U 22025AT  22127.91667824 -.00076841  00000-0 -54728-3 0  9996,2 51997  53.2126 206.0025 0002517  17.4298 237.4906 15.73229422  3701,6727.811,91.531,351.37,347.983,0.0
51997.0,STARLINK-3589,PAYLOAD,2022-05-08 04:00:00,15.73160179,0.0002411,53.2126,204.7644,17.2622,214.3673,0.00034195,0.00047564,0.0,0 STARLINK-3589,1 51997U 22025AT  22128.16667824  .00047564  00000-0  34195-3 0  9998,2 51997  53.2126 204.7644 0002411  17.2622 214.3673 15.73160179 10655,6728.009,91.535,351.496,348.25199999999984,0.0
51997.0,STARLINK-3589,PAYLOAD,2022-05-08 12:00:00,15.73178573,0.0002681,53.2124,203.117,16.4469,304.0705,0.00021493,0.00029625,0.0,0 STARLINK-3589,1 51997U 22025AT  22128.50001157  .00029625  00000-0  21493-3 0  9992,2 51997  53.2124 203.1170 0002681  16.4469 304.0705 15.73178573 10705,6727.956,91.534,351.625,348.017,0.0
51997.0,STARLINK-3589,PAYLOAD,2022-05-08 14:00:01,15.73170931,0.0002726,53.2126,202.7051,16.2847,56.4626,0.00044257,0.0006188,0.0,0 STARLINK-3589,1 51997U 22025AT  22128.58334491  .00061880  00000-0  44257-3 0  9992,2 51997  53.2126 202.7051 0002726  16.2847  56.4626 15.73170931  3698,6727.978,91.535,351.677,348.009,0.0
51997.0,STARLINK-3589,PAYLOAD,2022-05-08 22:00:00,15.73234208,0.0002689,53.2126,201.0538,18.5168,143.1602,-0.00051956,-0.00073031,0.0,0 STARLINK-3589,1 51997U 22025AT  22128.91667824 -.00073031  00000-0 -51956-3 0  9995,2 51997  53.2126 201.0538 0002689  18.5168 143.1602 15.73234208  3695,6727.7980000000025,91.531,351.472,347.85400000000016,0.0
51997.0,STARLINK-3589,PAYLOAD,2022-05-09 12:00:00,15.73241747,0.0002921999999999,53.2129,198.1683,21.289,206.0222,-0.00028434,-0.00040418,0.0,0 STARLINK-3589,1 51997U 22025AT  22129.50001157 -.00040418  00000-0 -28434-3 0  9990,2 51997  53.2129 198.1683 0002922  21.2890 206.0222 15.73241747 10868,6727.776,91.531,351.607,347.675,0.0
51997.0,STARLINK-3589,PAYLOAD,2022-05-09 14:00:01,15.73233666,0.0002944,53.2131,197.7561,20.0173,319.6034,-0.00022029,-0.00031476,0.0,0 STARLINK-3589,1 51997U 22025AT  22129.58335648 -.00031476  00000-0 -22029-3 0  9991,2 51997  53.2131 197.7561 0002944  20.0173 319.6034 15.73233666  3704,6727.799,91.531,351.645,347.684,0.0
51997.0,STARLINK-3589,PAYLOAD,2022-05-09 20:00:01,15.73218544,0.0002858,53.2128,196.5177,17.387,298.894,0.00010644,0.00014355,0.0,0 STARLINK-3589,1 51997U 22025AT  22129.83334491  .00014355  00000-0  10644-3 0  9999,2 51997  53.2128 196.5177 0002858  17.3870 298.8940 15.73218544 10910,6727.842,91.532,351.63,347.784,0.0
51997.0,STARLINK-3589,PAYLOAD,2022-05-09 22:00:00,15.73225288,0.0002763,53.2129,196.1048,16.7785,51.7397,3.8249e-05,4.755e-05,0.0,0 STARLINK-3589,1 51997U 22025AT  22129.91667824  .00004755  00000-0  38249-4 0  9992,2 51997  53.2129 196.1048 0002763  16.7785  51.7397 15.73225288  3699,6727.823,91.532,351.547,347.829,0.0
51997.0,STARLINK-3589,PAYLOAD,2022-05-10 04:00:00,15.73221531,0.0002646,53.213,194.867,16.8219,28.4033,-0.00015314,-0.00022082,0.0,0 STARLINK-3589,1 51997U 22025AT  22130.16667824 -.00022082  00000-0 -15314-3 0  9993,2 51997  53.2130 194.8670 0002646  16.8219  28.4033 15.73221531 10963,6727.834,91.532,351.47900000000016,347.9190000000001,0.0
51997.0,STARLINK-3589,PAYLOAD,2022-05-10 14:00:01,15.73199076,0.0002949,53.2129,192.8076,11.7372,234.6578,-0.000199,-0.00028462,0.0,0 STARLINK-3589,1 51997U 22025AT  22130.58334491 -.00028462  00000-0 -19900-3 0  9993,2 51997  53.2129 192.8076 0002949  11.7372 234.6578 15.73199076  3706,6727.898,91.533,351.747,347.779,0.0
51997.0,STARLINK-3589,PAYLOAD,2022-05-10 18:00:00,15.73190095,0.0002924,53.2125,191.9819,10.1872,100.6783,-0.00017161,-0.00024632,0.0,0 STARLINK-3589,1 51997U 22025AT  22130.75001157 -.00024632  00000-0 -17161-3 0  9994,2 51997  53.2125 191.9819 0002924  10.1872 100.6783 15.73190095  3687,6727.9230000000025,91.534,351.756,347.821,0.0
51997.0,STARLINK-3589,PAYLOAD,2022-05-11 20:00:01,15.73204004,0.0003058,53.213,186.6202,16.4966,113.3148,5.9554e-05,7.746e-05,0.0,0 STARLINK-3589,1 51997U 22025AT  22131.83334491  .00007746  00000-0  59554-4 0  9992,2 51997  53.2130 186.6202 0003058  16.4966 113.3148 15.73204004 11223,6727.884,91.533,351.806,347.691,0.0
51997.0,STARLINK-3589,PAYLOAD,2022-05-11 22:00:00,15.73193715,0.000299,53.2131,186.2074,16.6457,225.4023,0.00028902,0.0004013,0.0,0 STARLINK-3589,1 51997U 22025AT  22131.91667824  .00040130  00000-0  28902-3 0  9996,2 51997  53.2131 186.2074 0002990  16.6457 225.4023 15.73193715  1309,6727.913000000001,91.534,351.79,347.766,0.0
51997.0,STARLINK-3589,PAYLOAD,2022-05-12 14:00:01,15.73184211,0.000321,53.2125,182.9103,13.5452,46.4174,0.00074757,0.00105571,0.0,0 STARLINK-3589,1 51997U 22025AT  22132.58334491  .00105571  00000-0  74757-3 0  9991,2 51997  53.2125 182.9103 0003210  13.5452  46.4174 15.73184211  1304,6727.94,91.534,351.965,347.646,0.0
51997.0,STARLINK-3589,PAYLOAD,2022-05-12 20:00:01,15.73280305,0.0003058999999999,53.2125,181.6715,13.0011,23.6675,-0.00032038,-0.00045511,0.0,0 STARLINK-3589,1 51997U 22025AT  22132.83334491 -.00045511  00000-0 -32038-3 0  9994,2 51997  53.2125 181.6715 0003059  13.0011  23.6675 15.73280305 11389,6727.666,91.529,351.589,347.473,0.0
51997.0,STARLINK-3589,PAYLOAD,2022-05-12 22:00:00,15.73271379,0.0002983,53.2125,181.2585,12.7198,136.2038,-0.00025921,-0.00036962,0.0,0 STARLINK-3589,1 51997U 22025AT  22132.91667824 -.00036962  00000-0 -25921-3 0  9995,2 51997  53.2125 181.2585 0002983  12.7198 136.2038 15.73271379  1303,6727.691999999999,91.529,351.564,347.55,0.0
51997.0,STARLINK-3589,PAYLOAD,2022-05-13 14:00:01,15.73197458,0.0003322,53.2126,177.9612,13.2281,313.633,-0.00021816,-0.00031134,0.0,0 STARLINK-3589,1 51997U 22025AT  22133.58334491 -.00031134  00000-0 -21816-3 0  9995,2 51997  53.2126 177.9612 0003322  13.2281 313.6330 15.73197458  1305,6727.901999999999,91.533,352.00199999999984,347.532,0.0
51997.0,STARLINK-3589,PAYLOAD,2022-05-13 22:00:00,15.73150348,0.0003117,53.2129,176.3094,13.1366,42.644,0.00040531,0.00056534,0.0,0 STARLINK-3589,1 51997U 22025AT  22133.91667824  .00056534  00000-0  40531-3 0  9995,2 51997  53.2129 176.3094 0003117  13.1366  42.6440 15.73150348  1308,6728.0369999999975,91.536,351.999,347.805,0.0
51997.0,STARLINK-3589,PAYLOAD,2022-05-14 04:00:00,15.73211408,0.0003135,53.2124,175.0725,16.8385,15.6119,-0.00041848,-0.0005899,0.0,0 STARLINK-3589,1 51997U 22025AT  22134.16667824 -.00058990  00000-0 -41848-3 0  9995,2 51997  53.2124 175.0725 0003135  16.8385  15.6119 15.73211408 11591,6727.863,91.533,351.837,347.61800000000005,0.0
51997.0,STARLINK-3589,PAYLOAD,2022-05-14 12:00:00,15.73161218,0.0003446,53.2118,173.4249,18.2798,103.1138,0.00069672,0.00098167,0.0,0 STARLINK-3589,1 51997U 22025AT  22134.50001157  .00098167  00000-0  69672-3 0  9997,2 51997  53.2118 173.4249 0003446  18.2798 103.1138 15.73161218 11649,6728.005999999999,91.535,352.189,347.552,0.0
51997.0,STARLINK-3589,PAYLOAD,2022-05-14 14:00:01,15.73171039,0.0003457,53.2114,173.0124,17.3407,216.2792,0.0007581,0.00107029,0.0,0 STARLINK-3589,1 51997U 22025AT  22134.58334491  .00107029  00000-0  75810-3 0  9994,2 51997  53.2114 173.0124 0003457  17.3407 216.2792 15.73171039  1308,6727.978,91.535,352.1690000000001,347.517,0.0
51997.0,STARLINK-3589,PAYLOAD,2022-05-14 20:00:01,15.73248284,0.0003228,53.2116,171.7735,17.8405,192.4685,-8.636299999999999e-05,-0.00012754,0.0,0 STARLINK-3589,1 51997U 22025AT  22134.83334491 -.00012754  00000-0 -86363-4 0  9990,2 51997  53.2116 171.7735 0003228  17.8405 192.4685 15.73248284 11698,6727.7580000000025,91.53,351.7940000000001,347.451,0.0
